SL-12 R/B(2)            
1 15772U 85042D   26171.45852706 -.00000036  00000+0  52818-5 0  9993
2 15772  71.1073 230.6050 0036472 322.8141  47.9872 14.22006533129007
SL-14 R/B               
1 15945U 85069B   26171.40022816  .00000348  00000+0  36450-4 0  9998
2 15945  82.5273 288.3440 0018027 207.9505 152.0745 14.86517548188097
SL-16 R/B               
1 16182U 85097B   26171.44619478  .00000104  00000+0  76015-4 0  9994
2 16182  71.0034 284.2165 0005400 104.2894 322.2106 14.16610381101784
SL-14 R/B               
1 16496U 86006B   26171.41621076  .00000415  00000+0  41441-4 0  9997
2 16496  82.5261 163.0745 0074815 292.5669  66.7643 14.86948223164473
COSMOS 1743             
1 16719U 86034A   26171.40340493  .00043156  00000+0  40137-3 0  9995
2 16719  82.5280 325.3117 0004125 257.8396 102.2402 15.67204069196293
SL-14 R/B               
1 16792U 86046B   26171.45309977  .00000301  00000+0  31804-4 0  9993
2 16792  82.4818 343.0889 0021679 246.8824 113.0107 14.85672833141660
SL-14 R/B               
1 16882U 86055B   26171.05897988  .00000290  00000+0  30564-4 0  9992
2 16882  82.5202  30.4328 0018788 358.2644 158.1303 14.85724754134567
AJISAI (EGS)            
1 16908U 86061A   26171.43257355 -.00000100  00000+0 -18933-4 0  9996
2 16908  50.0070 137.4149 0011194 188.8064 260.9104 12.44516761480795
SL-14 R/B               
1 17567U 87024B   26170.97788487  .00000289  00000+0  30052-4 0  9993
2 17567  82.5279 356.6271 0016725 283.1537  76.7813 14.86214627103323
COSMOS 1833             
1 17589U 87027A   26171.29383227  .00000337  00000+0  20577-3 0  9993
2 17589  70.9187 110.3381 0022894  49.9325 310.3799 14.13052434 24812
SL-16 R/B               
1 17590U 87027B   26171.39240878 -.00000122  00000+0 -36749-4 0  9993
2 17590  71.0032  60.0747 0006617 308.6931  51.3600 14.17171037 29896
SL-14 R/B               
1 17912U 87038B   26171.36226936  .00000252  00000+0  26370-4 0  9990
2 17912  82.5005 200.0816 0019181 180.5956 179.5241 14.85446646 94474
COSMOS 1844             
1 17973U 87041A   26171.43067367 -.00000089  00000+0 -20711-4 0  9993
2 17973  70.8964 177.4655 0032728 230.8045 129.0169 14.14567297 18117
SL-14 R/B               
1 18153U 87055B   26171.32117712  .00000286  00000+0  29971-4 0  9991
2 18153  82.4993 252.2749 0021488  37.8057 322.4664 14.85712887 85178
COSMOS 1867             
1 18187U 87060A   26170.99752469 -.00000052  00000+0  17989-4 0  9998
2 18187  65.0114  20.1880 0016587 282.1795  77.7432 14.31515983 34584
SL-14 R/B               
1 18749U 88001B   26171.25604897  .00000307  00000+0  32615-4 0  9994
2 18749  82.5134  98.8867 0016455 258.4005 101.5364 14.85611338 57254
COSMOS 1933             
1 18958U 88020A   26171.39774882  .00002844  00000+0  13551-3 0  9999
2 18958  82.5126 149.2557 0003875 174.6277 185.4999 15.18731354 65810
SL-3 R/B                
1 19046U 88032B   26171.40127054  .00002988  00000+0  13757-3 0  9993
2 19046  97.5259 154.4385 0024025 233.0446 126.8589 15.20859491 67718
SL-16 R/B               
1 19120U 88039B   26171.43258006  .00000124  00000+0  81482-4 0  9999
2 19120  71.0133 211.2959 0022053 188.2859 171.7905 14.19630175972962
COSMOS 1953             
1 19210U 88050A   26171.41963748  .00006304  00000+0  21544-3 0  9994
2 19210  82.5073  54.7747 0012301 116.3180 243.9325 15.30015132 53480
SL-8 R/B                
1 19257U 88053B   26171.41243301  .00000133  00000+0  51564-4 0  9994
2 19257  74.0482 283.1120 0019174  77.2470 345.2112 14.38968456991378
COSMOS 1975             
1 19573U 88093A   26170.96782130  .00006554  00000+0  22868-3 0  9993
2 19573  82.5191  14.9043 0011614 162.1340 198.0311 15.29357369 35038
SL-14 R/B               
1 19574U 88093B   26171.36957759  .00000333  00000+0  35326-4 0  9993
2 19574  82.5314 305.6568 0021967  60.6090 354.4514 14.85743831 16265
SL-16 R/B               
1 19650U 88102B   26171.39570358  .00000027  00000+0  38049-4 0  9993
2 19650  71.0001 295.3875 0015603 220.7820 139.2137 14.16164120941430
INTERCOSMOS 24          
1 20261U 89080A   26171.43164421  .00000658  00000+0  18514-3 0  9998
2 20261  82.6062  37.5341 1188327  54.3855 316.2175 12.59666413679730
SL-14 R/B               
1 20262U 89080C   26171.28219612  .00000198  00000+0  59369-4 0  9998
2 20262  82.5936 107.3194 1228608 310.3183  39.6662 12.50571992672972
DELTA 1 R/B             
1 20323U 89089B   26171.46101461  .00000208  00000+0  59867-4 0  9992
2 20323  97.0636   2.4954 0069528 156.7063 203.7312 14.50732963910632
ARIANE 40 R/B           
1 20443U 90005H   26171.44961895  .00000163  00000+0  65357-4 0  9999
2 20443  98.2957 228.9643 0008874 253.1344 106.8872 14.39928811907596
DELTA 2 R/B(1)          
1 20453U 90008B   26171.43537697  .00078030  00000+0  56665-3 0  9990
2 20453  35.5993 213.9199 0064613 145.5981 214.8966 15.69273416942215
COSMOS 2058             
1 20465U 90010A   26171.44438716  .00003199  00000+0  18442-3 0  9994
2 20465  82.4691 306.1427 0008856 347.7217  12.3796 15.12035181957769
SL-14 R/B               
1 20466U 90010B   26171.40512806  .00000287  00000+0  31788-4 0  9998
2 20466  82.5015 170.9227 0018822 325.2529  34.7455 14.83647853943719
